{
  "type": "FeatureCollection",
  "features": [
    {
      "type": "Feature",
      "properties": {
        "norad_id": 66611,
        "name": "STARLINK-35583",
        "group": "last-30-days",
        "lat": -39.29558735674653,
        "lon": 10.76983823263576,
        "alt_km": 446.2259977942167,
        "timestamp": "2025-12-23T14:49:07.962091+00:00",
        "meta_object_name": "STARLINK-35583",
        "meta_object_id": "2025-270Z",
        "meta_epoch": "2025-12-23T06:00:00.999648",
        "meta_mean_motion": 15.40658245,
        "meta_eccentricity": 0.00016319,
        "meta_inclination": 43.0003,
        "meta_ra_of_asc_node": 131.4618,
        "meta_arg_of_pericenter": 269.0383,
        "meta_mean_anomaly": 98.7908,
        "meta_ephemeris_type": 0,
        "meta_classification_type": "U",
        "meta_norad_cat_id": 66611,
        "meta_element_set_no": 999,
        "meta_rev_at_epoch": 604,
        "meta_bstar": 0.0015028005,
        "meta_mean_motion_dot": 0.00062904,
        "meta_mean_motion_ddot": 0,
        "tle_line1": "1 66611U 25270Z   25357.25001157  .00062904  00000+0  15028-2 0  9997",
        "tle_line2": "2 66611  43.0003 131.4618 0001631 269.0383  98.7908 15.40658245  6049"
      },
      "geometry": {
        "type": "Point",
        "coordinates": [
          10.76983823263576,
          -39.29558735674653
        ]
      }
    },
    {
      "type": "Feature",
      "properties": {
        "norad_id": 66612,
        "name": "STARLINK-36039",
        "group": "last-30-days",
        "lat": -0.3097499383538914,
        "lon": 129.6113086328861,
        "alt_km": 443.43405297743993,
        "timestamp": "2025-12-23T14:49:07.962109+00:00",
        "meta_object_name": "STARLINK-36039",
        "meta_object_id": "2025-270AA",
        "meta_epoch": "2025-12-22T10:48:54.924480",
        "meta_mean_motion": 15.40715272,
        "meta_eccentricity": 0.00017466,
        "meta_inclination": 43.0017,
        "meta_ra_of_asc_node": 136.6692,
        "meta_arg_of_pericenter": 279.3644,
        "meta_mean_anomaly": 80.7015,
        "meta_ephemeris_type": 0,
        "meta_classification_type": "U",
        "meta_norad_cat_id": 66612,
        "meta_element_set_no": 999,
        "meta_rev_at_epoch": 584,
        "meta_bstar": 7.3190921e-05,
        "meta_mean_motion_dot": 2.756e-05,
        "meta_mean_motion_ddot": 0,
        "tle_line1": "1 66612U 25270AA  25356.45063570  .00002756  00000+0  73191-4 0  9992",
        "tle_line2": "2 66612  43.0017 136.6692 0001746 279.3644  80.7015 15.40715272  5846"
      },
      "geometry": {
        "type": "Point",
        "coordinates": [
          129.6113086328861,
          -0.3097499383538914
        ]
      }
    },
    {
      "type": "Feature",
      "properties": {
        "norad_id": 66613,
        "name": "STARLINK-36037",
        "group": "last-30-days",
        "lat": 16.300298889543008,
        "lon": 148.17579051941325,
        "alt_km": 441.5389150104056,
        "timestamp": "2025-12-23T14:49:07.962129+00:00",
        "meta_object_name": "STARLINK-36037",
        "meta_object_id": "2025-270AB",
        "meta_epoch": "2025-12-23T02:16:00.969888",
        "meta_mean_motion": 15.40696347,
        "meta_eccentricity": 0.00010651,
        "meta_inclination": 42.9999,
        "meta_ra_of_asc_node": 132.9013,
        "meta_arg_of_pericenter": 274.395,
        "meta_mean_anomaly": 85.6785,
        "meta_ephemeris_type": 0,
        "meta_classification_type": "U",
        "meta_norad_cat_id": 66613,
        "meta_element_set_no": 999,
        "meta_rev_at_epoch": 594,
        "meta_bstar": 0.0010983449,
        "meta_mean_motion_dot": 0.00045847,
        "meta_mean_motion_ddot": 0,
        "tle_line1": "1 66613U 25270AB  25357.09445567  .00045847  00000+0  10983-2 0  9990",
        "tle_line2": "2 66613  42.9999 132.9013 0001065 274.3950  85.6785 15.40696347  5949"
      },
      "geometry": {
        "type": "Point",
        "coordinates": [
          148.17579051941325,
          16.300298889543008
        ]
      }
    },
    {
      "type": "Feature",
      "properties": {
        "norad_id": 66614,
        "name": "STARLINK-36040",
        "group": "last-30-days",
        "lat": 27.99576411253482,
        "lon": -85.16646718723314,
        "alt_km": 440.27214507938334,
        "timestamp": "2025-12-23T14:49:07.962146+00:00",
        "meta_object_name": "STARLINK-36040",
        "meta_object_id": "2025-270AC",
        "meta_epoch": "2025-12-22T19:33:33.532416",
        "meta_mean_motion": 15.40700005,
        "meta_eccentricity": 0.00017915,
        "meta_inclination": 43.0038,
        "meta_ra_of_asc_node": 134.2382,
        "meta_arg_of_pericenter": 268.7631,
        "meta_mean_anomaly": 91.302,
        "meta_ephemeris_type": 0,
        "meta_classification_type": "U",
        "meta_norad_cat_id": 66614,
        "meta_element_set_no": 999,
        "meta_rev_at_epoch": 574,
        "meta_bstar": 0.0011223894,
        "meta_mean_motion_dot": 0.0004687,
        "meta_mean_motion_ddot": 0,
        "tle_line1": "1 66614U 25270AC  25356.81497144  .00046870  00000+0  11224-2 0  9994",
        "tle_line2": "2 66614  43.0038 134.2382 0001791 268.7631  91.3020 15.40700005  5740"
      },
      "geometry": {
        "type": "Point",
        "coordinates": [
          -85.16646718723314,
          27.99576411253482
        ]
      }
    },
    {
      "type": "Feature",
      "properties": {
        "norad_id": 66615,
        "name": "STARLINK-35988",
        "group": "last-30-days",
        "lat": 36.938717544516166,
        "lon": -176.40757607765752,
        "alt_km": 438.42984709321354,
        "timestamp": "2025-12-23T14:49:07.962163+00:00",
        "meta_object_name": "STARLINK-35988",
        "meta_object_id": "2025-270AD",
        "meta_epoch": "2025-12-22T18:19:33.981600",
        "meta_mean_motion": 15.40722173,
        "meta_eccentricity": 9.453e-05,
        "meta_inclination": 42.9966,
        "meta_ra_of_asc_node": 134.7149,
        "meta_arg_of_pericenter": 267.1486,
        "meta_mean_anomaly": 92.9263,
        "meta_ephemeris_type": 0,
        "meta_classification_type": "U",
        "meta_norad_cat_id": 66615,
        "meta_element_set_no": 999,
        "meta_rev_at_epoch": 573,
        "meta_bstar": 0.00099727967,
        "meta_mean_motion_dot": 0.00041613,
        "meta_mean_motion_ddot": 0,
        "tle_line1": "1 66615U 25270AD  25356.76358775  .00041613  00000+0  99728-3 0  9991",
        "tle_line2": "2 66615  42.9966 134.7149 0000945 267.1486  92.9263 15.40722173  5731"
      },
      "geometry": {
        "type": "Point",
        "coordinates": [
          -176.40757607765752,
          36.938717544516166
        ]
      }
    },
    {
      "type": "Feature",
      "properties": {
        "norad_id": 66616,
        "name": "STARLINK-35391",
        "group": "last-30-days",
        "lat": 12.592157694403092,
        "lon": -64.31645953376189,
        "alt_km": 442.51946924023196,
        "timestamp": "2025-12-23T14:49:07.962180+00:00",
        "meta_object_name": "STARLINK-35391",
        "meta_object_id": "2025-270AE",
        "meta_epoch": "2025-12-23T01:40:32.246688",
        "meta_mean_motion": 15.40750542,
        "meta_eccentricity": 0.00020512,
        "meta_inclination": 43.0009,
        "meta_ra_of_asc_node": 132.7099,
        "meta_arg_of_pericenter": 281.5109,
        "meta_mean_anomaly": 78.5517,
        "meta_ephemeris_type": 0,
        "meta_classification_type": "U",
        "meta_norad_cat_id": 66616,
        "meta_element_set_no": 999,
        "meta_rev_at_epoch": 605,
        "meta_bstar": 0.0010378887,
        "meta_mean_motion_dot": 0.00043372,
        "meta_mean_motion_ddot": 0,
        "tle_line1": "1 66616U 25270AE  25357.06981767  .00043372  00000+0  10379-2 0  9997",
        "tle_line2": "2 66616  43.0009 132.7099 0002051 281.5109  78.5517 15.40750542  6055"
      },
      "geometry": {
        "type": "Point",
        "coordinates": [
          -64.31645953376189,
          12.592157694403092
        ]
      }
    },
    {
      "type": "Feature",
      "properties": {
        "norad_id": 66617,
        "name": "STARLINK-35940",
        "group": "last-30-days",
        "lat": 7.520908256375767,
        "lon": 141.5068706485693,
        "alt_km": 446.47084134348825,
        "timestamp": "2025-12-23T14:49:07.962200+00:00",
        "meta_object_name": "STARLINK-35940",
        "meta_object_id": "2025-271A",
        "meta_epoch": "2025-12-23T02:18:53.108064",
        "meta_mean_motion": 15.39621466,
        "meta_eccentricity": 0.0001155,
        "meta_inclination": 53.1597,
        "meta_ra_of_asc_node": 138.2821,
        "meta_arg_of_pericenter": 58.3609,
        "meta_mean_anomaly": 301.7508,
        "meta_ephemeris_type": 0,
        "meta_classification_type": "U",
        "meta_norad_cat_id": 66617,
        "meta_element_set_no": 999,
        "meta_rev_at_epoch": 580,
        "meta_bstar": 0.0010041821,
        "meta_mean_motion_dot": 0.00039979,
        "meta_mean_motion_ddot": 0,
        "tle_line1": "1 66617U 25271A   25357.09644801  .00039979  00000+0  10042-2 0  9992",
        "tle_line2": "2 66617  53.1597 138.2821 0001155  58.3609 301.7508 15.39621466  5806"
      },
      "geometry": {
        "type": "Point",
        "coordinates": [
          141.5068706485693,
          7.520908256375767
        ]
      }
    }
  ]
}